CCSDS_OMM_VERS = 2.0
CREATION_DATE  = 
ORIGINATOR     = 

OBJECT_NAME    = STARLINK-36189
OBJECT_ID      = 2025-293H
CENTER_NAME    = EARTH
REF_FRAME      = TEME
TIME_SYSTEM    = UTC
MEAN_ELEMENT_THEORY = SGP/SGP4

EPOCH          = 2026-01-02T18:00:01.999296
MEAN_MOTION    = 15.52604598
ECCENTRICITY   = .0003114
INCLINATION    = 70.0000
RA_OF_ASC_NODE = 263.9283
ARG_OF_PERICENTER = 263.8126
MEAN_ANOMALY   = 342.6438

EPHEMERIS_TYPE = 0
CLASSIFICATION_TYPE = U
NORAD_CAT_ID   = 67010
ELEMENT_SET_NO = 999
REV_AT_EPOCH   = 353
BSTAR          = -.24294E-2
MEAN_MOTION_DOT = -.14734E-2
MEAN_MOTION_DDOT = 0

CCSDS_OMM_VERS = 2.0
CREATION_DATE  = 
ORIGINATOR     = 

OBJECT_NAME    = STARLINK-36167
OBJECT_ID      = 2025-293J
CENTER_NAME    = EARTH
REF_FRAME      = TEME
TIME_SYSTEM    = UTC
MEAN_ELEMENT_THEORY = SGP/SGP4

EPOCH          = 2026-01-02T18:00:01.999296
MEAN_MOTION    = 15.52589491
ECCENTRICITY   = .0003083
INCLINATION    = 70.0000
RA_OF_ASC_NODE = 263.9307
ARG_OF_PERICENTER = 265.2292
MEAN_ANOMALY   = 339.3134

EPHEMERIS_TYPE = 0
CLASSIFICATION_TYPE = U
NORAD_CAT_ID   = 67011
ELEMENT_SET_NO = 999
REV_AT_EPOCH   = 347
BSTAR          = -.19431E-2
MEAN_MOTION_DOT = -.118248E-2
MEAN_MOTION_DDOT = 0

CCSDS_OMM_VERS = 2.0
CREATION_DATE  = 
ORIGINATOR     = 

OBJECT_NAME    = STARLINK-36175
OBJECT_ID      = 2025-293K
CENTER_NAME    = EARTH
REF_FRAME      = TEME
TIME_SYSTEM    = UTC
MEAN_ELEMENT_THEORY = SGP/SGP4

EPOCH          = 2026-01-02T18:00:01.999296
MEAN_MOTION    = 15.52543776
ECCENTRICITY   = .0003332
INCLINATION    = 69.9998
RA_OF_ASC_NODE = 263.9265
ARG_OF_PERICENTER = 266.7287
MEAN_ANOMALY   = 341.6521

EPHEMERIS_TYPE = 0
CLASSIFICATION_TYPE = U
NORAD_CAT_ID   = 67012
ELEMENT_SET_NO = 999
REV_AT_EPOCH   = 347
BSTAR          = -.44904E-3
MEAN_MOTION_DOT = -.27722E-3
MEAN_MOTION_DDOT = 0

CCSDS_OMM_VERS = 2.0
CREATION_DATE  = 
ORIGINATOR     = 

OBJECT_NAME    = STARLINK-35856
OBJECT_ID      = 2025-293L
CENTER_NAME    = EARTH
REF_FRAME      = TEME
TIME_SYSTEM    = UTC
MEAN_ELEMENT_THEORY = SGP/SGP4

EPOCH          = 2026-01-02T18:00:01.999296
MEAN_MOTION    = 15.52589958
ECCENTRICITY   = .0003482
INCLINATION    = 70.0001
RA_OF_ASC_NODE = 263.9237
ARG_OF_PERICENTER = 264.6376
MEAN_ANOMALY   = 345.6534

EPHEMERIS_TYPE = 0
CLASSIFICATION_TYPE = U
NORAD_CAT_ID   = 67013
ELEMENT_SET_NO = 999
REV_AT_EPOCH   = 347
BSTAR          = -.19799E-2
MEAN_MOTION_DOT = -.120458E-2
MEAN_MOTION_DDOT = 0

CCSDS_OMM_VERS = 2.0
CREATION_DATE  = 
ORIGINATOR     = 

OBJECT_NAME    = STARLINK-36207
OBJECT_ID      = 2025-293M
CENTER_NAME    = EARTH
REF_FRAME      = TEME
TIME_SYSTEM    = UTC
MEAN_ELEMENT_THEORY = SGP/SGP4

EPOCH          = 2026-01-02T18:00:01.999296
MEAN_MOTION    = 15.52579263
ECCENTRICITY   = .0003253
INCLINATION    = 70.0001
RA_OF_ASC_NODE = 263.9220
ARG_OF_PERICENTER = 266.8000
MEAN_ANOMALY   = 345.4087

EPHEMERIS_TYPE = 0
CLASSIFICATION_TYPE = U
NORAD_CAT_ID   = 67014
ELEMENT_SET_NO = 999
REV_AT_EPOCH   = 353
BSTAR          = -.16656E-2
MEAN_MOTION_DOT = -.101561E-2
MEAN_MOTION_DDOT = 0

CCSDS_OMM_VERS = 2.0
CREATION_DATE  = 
ORIGINATOR     = 

OBJECT_NAME    = STARLINK-36093
OBJECT_ID      = 2025-293N
CENTER_NAME    = EARTH
REF_FRAME      = TEME
TIME_SYSTEM    = UTC
MEAN_ELEMENT_THEORY = SGP/SGP4

EPOCH          = 2026-01-02T18:00:01.999296
MEAN_MOTION    = 15.52602006
ECCENTRICITY   = .0003183
INCLINATION    = 70.0000
RA_OF_ASC_NODE = 263.9171
ARG_OF_PERICENTER = 266.5687
MEAN_ANOMALY   = 349.4729

EPHEMERIS_TYPE = 0
CLASSIFICATION_TYPE = U
NORAD_CAT_ID   = 67015
ELEMENT_SET_NO = 999
REV_AT_EPOCH   = 347
BSTAR          = -.23801E-2
MEAN_MOTION_DOT = -.144396E-2
MEAN_MOTION_DDOT = 0

CCSDS_OMM_VERS = 2.0
CREATION_DATE  = 
ORIGINATOR     = 

OBJECT_NAME    = STARLINK-36120
OBJECT_ID      = 2025-293P
CENTER_NAME    = EARTH
REF_FRAME      = TEME
TIME_SYSTEM    = UTC
MEAN_ELEMENT_THEORY = SGP/SGP4

EPOCH          = 2026-01-02T18:00:01.999296
MEAN_MOTION    = 15.52590992
ECCENTRICITY   = .0003226
INCLINATION    = 70.0000
RA_OF_ASC_NODE = 263.9193
ARG_OF_PERICENTER = 265.6414
MEAN_ANOMALY   = 348.4859

EPHEMERIS_TYPE = 0
CLASSIFICATION_TYPE = U
NORAD_CAT_ID   = 67016
ELEMENT_SET_NO = 999
REV_AT_EPOCH   = 347
BSTAR          = -.20419E-2
MEAN_MOTION_DOT = -.124164E-2
MEAN_MOTION_DDOT = 0

CCSDS_OMM_VERS = 2.0
CREATION_DATE  = 
ORIGINATOR     = 

OBJECT_NAME    = STARLINK-35498
OBJECT_ID      = 2025-293Q
CENTER_NAME    = EARTH
REF_FRAME      = TEME
TIME_SYSTEM    = UTC
MEAN_ELEMENT_THEORY = SGP/SGP4

EPOCH          = 2026-01-02T18:00:01.999296
MEAN_MOTION    = 15.52598533
ECCENTRICITY   = .0003172
INCLINATION    = 70.0001
RA_OF_ASC_NODE = 263.9147
ARG_OF_PERICENTER = 267.4289
MEAN_ANOMALY   = 350.5270

EPHEMERIS_TYPE = 0
CLASSIFICATION_TYPE = U
NORAD_CAT_ID   = 67017
ELEMENT_SET_NO = 999
REV_AT_EPOCH   = 367
BSTAR          = -.22349E-2
MEAN_MOTION_DOT = -.135727E-2
MEAN_MOTION_DDOT = 0

CCSDS_OMM_VERS = 2.0
CREATION_DATE  = 
ORIGINATOR     = 

OBJECT_NAME    = STARLINK-36106
OBJECT_ID      = 2025-293R
CENTER_NAME    = EARTH
REF_FRAME      = TEME
TIME_SYSTEM    = UTC
MEAN_ELEMENT_THEORY = SGP/SGP4

EPOCH          = 2026-01-02T18:00:01.999296
MEAN_MOTION    = 15.52595387
ECCENTRICITY   = .0003331
INCLINATION    = 69.9999
RA_OF_ASC_NODE = 263.9121
ARG_OF_PERICENTER = 263.7495
MEAN_ANOMALY   = 356.1250

EPHEMERIS_TYPE = 0
CLASSIFICATION_TYPE = U
NORAD_CAT_ID   = 67018
ELEMENT_SET_NO = 999
REV_AT_EPOCH   = 358
BSTAR          = -.21815E-2
MEAN_MOTION_DOT = -.132527E-2
MEAN_MOTION_DDOT = 0

CCSDS_OMM_VERS = 2.0
CREATION_DATE  = 
ORIGINATOR     = 

OBJECT_NAME    = STARLINK-35688
OBJECT_ID      = 2025-293S
CENTER_NAME    = EARTH
REF_FRAME      = TEME
TIME_SYSTEM    = UTC
MEAN_ELEMENT_THEORY = SGP/SGP4

EPOCH          = 2026-01-02T18:00:01.999296
MEAN_MOTION    = 15.52594603
ECCENTRICITY   = .000327
INCLINATION    = 70.0000
RA_OF_ASC_NODE = 263.9099
ARG_OF_PERICENTER = 264.4762
MEAN_ANOMALY   = 357.3181

EPHEMERIS_TYPE = 0
CLASSIFICATION_TYPE = U
NORAD_CAT_ID   = 67019
ELEMENT_SET_NO = 999
REV_AT_EPOCH   = 367
BSTAR          = -.21638E-2
MEAN_MOTION_DOT = -.131468E-2
MEAN_MOTION_DDOT = 0

CCSDS_OMM_VERS = 2.0
CREATION_DATE  = 
ORIGINATOR     = 

OBJECT_NAME    = STARLINK-36172
OBJECT_ID      = 2025-293T
CENTER_NAME    = EARTH
REF_FRAME      = TEME
TIME_SYSTEM    = UTC
MEAN_ELEMENT_THEORY = SGP/SGP4

EPOCH          = 2026-01-02T18:00:01.999296
MEAN_MOTION    = 15.52595725
ECCENTRICITY   = .0003303
INCLINATION    = 70.0001
RA_OF_ASC_NODE = 263.9076
ARG_OF_PERICENTER = 264.2908
MEAN_ANOMALY   = 359.4182

EPHEMERIS_TYPE = 0
CLASSIFICATION_TYPE = U
NORAD_CAT_ID   = 67020
ELEMENT_SET_NO = 999
REV_AT_EPOCH   = 358
BSTAR          = -.2178E-2
MEAN_MOTION_DOT = -.132323E-2
MEAN_MOTION_DDOT = 0

CCSDS_OMM_VERS = 2.0
CREATION_DATE  = 
ORIGINATOR     = 

OBJECT_NAME    = STARLINK-36184
OBJECT_ID      = 2025-293U
CENTER_NAME    = EARTH
REF_FRAME      = TEME
TIME_SYSTEM    = UTC
MEAN_ELEMENT_THEORY = SGP/SGP4

EPOCH          = 2026-01-02T18:00:01.999296
MEAN_MOTION    = 15.52599972
ECCENTRICITY   = .000317
INCLINATION    = 70.0000
RA_OF_ASC_NODE = 263.9054
ARG_OF_PERICENTER = 264.5933
MEAN_ANOMALY   = 1.0311

EPHEMERIS_TYPE = 0
CLASSIFICATION_TYPE = U
NORAD_CAT_ID   = 67021
ELEMENT_SET_NO = 999
REV_AT_EPOCH   = 358
BSTAR          = -.22992E-2
MEAN_MOTION_DOT = -.139564E-2
MEAN_MOTION_DDOT = 0

