STARLINK-36189          
1 67010U 25293H   26002.75002314 -.00147340  00000+0 -24294-2 0  9990
2 67010  70.0000 263.9283 0003114 263.8126 342.6438 15.52604598  3539
STARLINK-36167          
1 67011U 25293J   26002.75002314 -.00118248  00000+0 -19431-2 0  9993
2 67011  70.0000 263.9307 0003083 265.2292 339.3134 15.52589491  3475
STARLINK-36175          
1 67012U 25293K   26002.75002314 -.00027722  00000+0 -44904-3 0  9994
2 67012  69.9998 263.9265 0003332 266.7287 341.6521 15.52543776  3471
STARLINK-35856          
1 67013U 25293L   26002.75002314 -.00120458  00000+0 -19799-2 0  9998
2 67013  70.0001 263.9237 0003482 264.6376 345.6534 15.52589958  3471
STARLINK-36207          
1 67014U 25293M   26002.75002314 -.00101561  00000+0 -16656-2 0  9992
2 67014  70.0001 263.9220 0003253 266.8000 345.4087 15.52579263  3534
STARLINK-36093          
1 67015U 25293N   26002.75002314 -.00144396  00000+0 -23801-2 0  9996
2 67015  70.0000 263.9171 0003183 266.5687 349.4729 15.52602006  3471
STARLINK-36120          
1 67016U 25293P   26002.75002314 -.00124164  00000+0 -20419-2 0  9990
2 67016  70.0000 263.9193 0003226 265.6414 348.4859 15.52590992  3475
STARLINK-35498          
1 67017U 25293Q   26002.75002314 -.00135727  00000+0 -22349-2 0  9992
2 67017  70.0001 263.9147 0003172 267.4289 350.5270 15.52598533  3678
STARLINK-36106          
1 67018U 25293R   26002.75002314 -.00132527  00000+0 -21815-2 0  9995
2 67018  69.9999 263.9121 0003331 263.7495 356.1250 15.52595387  3583
STARLINK-35688          
1 67019U 25293S   26002.75002314 -.00131468  00000+0 -21638-2 0  9992
2 67019  70.0000 263.9099 0003270 264.4762 357.3181 15.52594603  3677
STARLINK-36172          
1 67020U 25293T   26002.75002314 -.00132323  00000+0 -21780-2 0  9993
2 67020  70.0001 263.9076 0003303 264.2908 359.4182 15.52595725  3582
STARLINK-36184          
1 67021U 25293U   26002.75002314 -.00139564  00000+0 -22992-2 0  9994
2 67021  70.0000 263.9054 0003170 264.5933   1.0311 15.52599972  3583
